start=new Date('2022-05-01T00:00:00.000Z').valueOf();
sats=[{"SEMIMAJOR_AXIS":"6925.360","MEAN_MOTION_DOT":"-0.00002658","MEAN_MOTION":"15.06396245","DECAY_DATE":null,"TIME_SYSTEM":"UTC","PERIAPSIS":"546.187","RCS_SIZE":"LARGE","BSTAR":"-0.00015960000000","TLE_LINE2":"2 46579  53.0561   6.0743 0001499  70.4890 289.6260 15.06396245 87373","RA_OF_ASC_NODE":"6.0743","GP_ID":"202390122","PERIOD":"95.592","ELEMENT_SET_NO":"999","TLE_LINE1":"1 46579U 20070AZ  22120.86569153 -.00002658  00000-0 -15960-3 0  9997","OBJECT_ID":"2020-070AZ","APOAPSIS":"548.263","NORAD_CAT_ID":"46579","EPOCH":"2022-04-30T20:46:35.748192","REV_AT_EPOCH":"8737","CLASSIFICATION_TYPE":"U","ARG_OF_PERICENTER":"70.4890","COUNTRY_CODE":"US","OBJECT_TYPE":"PAYLOAD","MEAN_ANOMALY":"289.6260","MEAN_ELEMENT_THEORY":"SGP4","CENTER_NAME":"EARTH","EPHEMERIS_TYPE":"0","INCLINATION":"53.0561","MEAN_MOTION_DDOT":"0.0000000000000","FILE":"3423346","LAUNCH_DATE":"2020-10-06","REF_FRAME":"TEME","SITE":"AFETR","OBJECT_NAME":"STARLINK-1705","ECCENTRICITY":"0.00014990"},{"OBJECT_TYPE":"PAYLOAD","MEAN_ELEMENT_THEORY":"SGP4","MEAN_ANOMALY":"297.8312","COUNTRY_CODE":"US","ARG_OF_PERICENTER":"62.2833","CLASSIFICATION_TYPE":"U","REV_AT_EPOCH":"8737","EPOCH":"2022-04-30T20:14:44.639808","ECCENTRICITY":"0.00015450","OBJECT_NAME":"STARLINK-1708","SITE":"AFETR","REF_FRAME":"TEME","FILE":"3423346","LAUNCH_DATE":"2020-10-06","MEAN_MOTION_DDOT":"0.0000000000000","INCLINATION":"53.0566","EPHEMERIS_TYPE":"0","CENTER_NAME":"EARTH","TLE_LINE2":"2 46580  53.0566   6.1677 0001545  62.2833 297.8312 15.06396956 87373","BSTAR":"-0.00012105000000","RCS_SIZE":"LARGE","PERIAPSIS":"546.153","TIME_SYSTEM":"UTC","DECAY_DATE":null,"MEAN_MOTION":"15.06396956","MEAN_MOTION_DOT":"-0.00002084","SEMIMAJOR_AXIS":"6925.358","NORAD_CAT_ID":"46580","APOAPSIS":"548.293","OBJECT_ID":"2020-070BA","TLE_LINE1":"1 46580U 20070BA  22120.84357222 -.00002084  00000-0 -12105-3 0  9990","ELEMENT_SET_NO":"999","PERIOD":"95.592","GP_ID":"202390873","RA_OF_ASC_NODE":"6.1677"},{"NORAD_CAT_ID":"46581","APOAPSIS":"548.323","OBJECT_ID":"2020-070BB","TLE_LINE1":"1 46581U 20070BB  22120.87536722 -.00001429  00000-0 -77092-4 0  9997","PERIOD":"95.593","ELEMENT_SET_NO":"999","RA_OF_ASC_NODE":"1.0420","GP_ID":"202391124","RCS_SIZE":"LARGE","TLE_LINE2":"2 46581  53.0562   1.0420 0001551  64.6513 295.4637 15.06388588 87442","BSTAR":"-0.00007709200000","PERIAPSIS":"546.174","MEAN_MOTION":"15.06388588","DECAY_DATE":null,"TIME_SYSTEM":"UTC","SEMIMAJOR_AXIS":"6925.384","MEAN_MOTION_DOT":"-0.00001429","ECCENTRICITY":"0.00015510","OBJECT_NAME":"STARLINK-1712","SITE":"AFETR","REF_FRAME":"TEME","LAUNCH_DATE":"2020-10-06","FILE":"3423346","MEAN_MOTION_DDOT":"0.0000000000000","CENTER_NAME":"EARTH","EPHEMERIS_TYPE":"0","INCLINATION":"53.0562","COUNTRY_CODE":"US","OBJECT_TYPE":"PAYLOAD","MEAN_ANOMALY":"295.4637","MEAN_ELEMENT_THEORY":"SGP4","ARG_OF_PERICENTER":"64.6513","CLASSIFICATION_TYPE":"U","REV_AT_EPOCH":"8744","EPOCH":"2022-04-30T21:00:31.727808"},{"FILE":"3423346","LAUNCH_DATE":"2020-10-06","MEAN_MOTION_DDOT":"0.0000000000000","CENTER_NAME":"EARTH","EPHEMERIS_TYPE":"0","INCLINATION":"53.0594","ECCENTRICITY":"0.00014310","OBJECT_NAME":"STARLINK-1728","SITE":"AFETR","REF_FRAME":"TEME","REV_AT_EPOCH":"8744","EPOCH":"2022-04-30T20:39:17.788320","COUNTRY_CODE":"US","MEAN_ANOMALY":"286.4928","OBJECT_TYPE":"PAYLOAD","MEAN_ELEMENT_THEORY":"SGP4","CLASSIFICATION_TYPE":"U","ARG_OF_PERICENTER":"73.6218","TLE_LINE1":"1 46582U 20070BC  22120.86062255 -.00001828  00000-0 -10388-3 0  9999","ELEMENT_SET_NO":"999","PERIOD":"95.592","RA_OF_ASC_NODE":"1.0933","GP_ID":"202391875","NORAD_CAT_ID":"46582","APOAPSIS":"548.220","OBJECT_ID":"2020-070BC","PERIAPSIS":"546.238","MEAN_MOTION":"15.06394879","DECAY_DATE":null,"TIME_SYSTEM":"UTC","SEMIMAJOR_AXIS":"6925.364","MEAN_MOTION_DOT":"-0.00001828","RCS_SIZE":"LARGE","BSTAR":"-0.00010388000000","TLE_LINE2":"2 46582  53.0594   1.0933 0001431  73.6218 286.4928 15.06394879 87449"},{"TLE_LINE1":"1 46583U 20070BD  22120.44595045 -.00003301  00000-0 -20290-3 0  9993","ELEMENT_SET_NO":"999","PERIOD":"95.593","GP_ID":"202353759","RA_OF_ASC_NODE":"22.9526","NORAD_CAT_ID":"46583","APOAPSIS":"548.333","OBJECT_ID":"2020-070BD","PERIAPSIS":"546.162","DECAY_DATE":null,"TIME_SYSTEM":"UTC","MEAN_MOTION":"15.06388946","SEMIMAJOR_AXIS":"6925.382","MEAN_MOTION_DOT":"-0.00003301","BSTAR":"-0.00020290000000","TLE_LINE2":"2 46583  53.0567  22.9526 0001568  70.1829 289.9329 15.06388946 87093","RCS_SIZE":"LARGE","FILE":"3422880","LAUNCH_DATE":"2020-10-06","MEAN_MOTION_DDOT":"0.0000000000000","INCLINATION":"53.0567","CENTER_NAME":"EARTH","EPHEMERIS_TYPE":"0","ECCENTRICITY":"0.00015680","OBJECT_NAME":"STARLINK-1729","SITE":"AFETR","REF_FRAME":"TEME","REV_AT_EPOCH":"8709","EPOCH":"2022-04-30T10:42:10.118880","MEAN_ANOMALY":"289.9329","OBJECT_TYPE":"PAYLOAD","MEAN_ELEMENT_THEORY":"SGP4","COUNTRY_CODE":"US","CLASSIFICATION_TYPE":"U","ARG_OF_PERICENTER":"70.1829"},{"REV_AT_EPOCH":"8744","EPOCH":"2022-04-30T20:44:36.363264","OBJECT_TYPE":"PAYLOAD","MEAN_ANOMALY":"285.6464","MEAN_ELEMENT_THEORY":"SGP4","COUNTRY_CODE":"US","ARG_OF_PERICENTER":"74.4711","CLASSIFICATION_TYPE":"U","FILE":"3423346","LAUNCH_DATE":"2020-10-06","MEAN_MOTION_DDOT":"0.0000000000000","INCLINATION":"53.0565","EPHEMERIS_TYPE":"0","CENTER_NAME":"EARTH","OBJECT_NAME":"STARLINK-1732","ECCENTRICITY":"0.00016920","SITE":"AFETR","REF_FRAME":"TEME","PERIAPSIS":"546.072","TIME_SYSTEM":"UTC","DECAY_DATE":null,"MEAN_MOTION":"15.06390073","SEMIMAJOR_AXIS":"6925.379","MEAN_MOTION_DOT":"-0.00002072","BSTAR":"-0.00012028000000","TLE_LINE2":"2 46584  53.0565   1.0903 0001692  74.4711 285.6464 15.06390073 87440","RCS_SIZE":"LARGE","TLE_LINE1":"1 46584U 20070BE  22120.86430976 -.00002072  00000-0 -12028-3 0  9995","PERIOD":"95.593","ELEMENT_SET_NO":"999","GP_ID":"202390373","RA_OF_ASC_NODE":"1.0903","NORAD_CAT_ID":"46584","APOAPSIS":"548.416","OBJECT_ID":"2020-070BE"},{"GP_ID":"202391625","RA_OF_ASC_NODE":"1.0024","PERIOD":"95.593","ELEMENT_SET_NO":"999","TLE_LINE1":"1 46585U 20070BF  22120.88274953 -.00001602  00000-0 -88691-4 0  9997","OBJECT_ID":"2020-070BF","APOAPSIS":"548.347","NORAD_CAT_ID":"46585","MEAN_MOTION_DOT":"-0.00001602","SEMIMAJOR_AXIS":"6925.373","TIME_SYSTEM":"UTC","DECAY_DATE":null,"MEAN_MOTION":"15.06392005","PERIAPSIS":"546.129","TLE_LINE2":"2 46585  53.0562   1.0024 0001601  78.6802 281.4367 15.06392005 87442","BSTAR":"-0.00008869100000","RCS_SIZE":"LARGE","INCLINATION":"53.0562","EPHEMERIS_TYPE":"0","CENTER_NAME":"EARTH","MEAN_MOTION_DDOT":"0.0000000000000","FILE":"3423346","LAUNCH_DATE":"2020-10-06","REF_FRAME":"TEME","SITE":"AFETR","OBJECT_NAME":"STARLINK-1736","ECCENTRICITY":"0.00016010","EPOCH":"2022-04-30T21:11:09.559392","REV_AT_EPOCH":"8744","CLASSIFICATION_TYPE":"U","ARG_OF_PERICENTER":"78.6802","MEAN_ANOMALY":"281.4367","OBJECT_TYPE":"PAYLOAD","MEAN_ELEMENT_THEORY":"SGP4","COUNTRY_CODE":"US"},{"TLE_LINE1":"1 46586U 20070BG  22120.87167642  .00007829  00000-0  54403-3 0  9991","ELEMENT_SET_NO":"999","PERIOD":"95.593","GP_ID":"202391375","RA_OF_ASC_NODE":"1.0607","NORAD_CAT_ID":"46586","APOAPSIS":"548.349","OBJECT_ID":"2020-070BG","PERIAPSIS":"546.133","TIME_SYSTEM":"UTC","DECAY_DATE":null,"MEAN_MOTION":"15.06391005","SEMIMAJOR_AXIS":"6925.376","MEAN_MOTION_DOT":"0.00007829","BSTAR":"0.00054403000000","TLE_LINE2":"2 46586  53.0535   1.0607 0001600  97.4687 262.6484 15.06391005 87449","RCS_SIZE":"LARGE","FILE":"3423346","LAUNCH_DATE":"2020-10-06","MEAN_MOTION_DDOT":"0.0000000000000","INCLINATION":"53.0535","CENTER_NAME":"EARTH","EPHEMERIS_TYPE":"0","OBJECT_NAME":"STARLINK-1737","ECCENTRICITY":"0.00016000","SITE":"AFETR","REF_FRAME":"TEME","REV_AT_EPOCH":"8744","EPOCH":"2022-04-30T20:55:12.842688","OBJECT_TYPE":"PAYLOAD","MEAN_ELEMENT_THEORY":"SGP4","MEAN_ANOMALY":"262.6484","COUNTRY_CODE":"US","CLASSIFICATION_TYPE":"U","ARG_OF_PERICENTER":"97.4687"},{"INCLINATION":"53.0554","CENTER_NAME":"EARTH","EPHEMERIS_TYPE":"0","FILE":"3423346","LAUNCH_DATE":"2020-10-06","MEAN_MOTION_DDOT":"0.0000000000000","SITE":"AFETR","REF_FRAME":"TEME","ECCENTRICITY":"0.00015520","OBJECT_NAME":"STARLINK-1746","REV_AT_EPOCH":"8745","EPOCH":"2022-04-30T22:04:13.249920","ARG_OF_PERICENTER":"55.4627","CLASSIFICATION_TYPE":"U","OBJECT_TYPE":"PAYLOAD","MEAN_ANOMALY":"304.6509","MEAN_ELEMENT_THEORY":"SGP4","COUNTRY_CODE":"US","ELEMENT_SET_NO":"999","PERIOD":"95.593","GP_ID":"202390123","RA_OF_ASC_NODE":"0.8403","TLE_LINE1":"1 46588U 20070BJ  22120.91959780 -.00002220  00000-0 -13020-3 0  9992","OBJECT_ID":"2020-070BJ","NORAD_CAT_ID":"46588","APOAPSIS":"548.308","MEAN_MOTION_DOT":"-0.00002220","SEMIMAJOR_AXIS":"6925.369","PERIAPSIS":"546.159","TIME_SYSTEM":"UTC","DECAY_DATE":null,"MEAN_MOTION":"15.06393435","BSTAR":"-0.00013020000000","TLE_LINE2":"2 46588  53.0554   0.8403 0001552  55.4627 304.6509 15.06393435 87452","RCS_SIZE":"LARGE"},{"REV_AT_EPOCH":"8743","EPOCH":"2022-04-30T20:18:03.849696","ARG_OF_PERICENTER":"77.9947","CLASSIFICATION_TYPE":"U","COUNTRY_CODE":"US","OBJECT_TYPE":"PAYLOAD","MEAN_ELEMENT_THEORY":"SGP4","MEAN_ANOMALY":"282.1197","CENTER_NAME":"EARTH","EPHEMERIS_TYPE":"0","INCLINATION":"53.0560","FILE":"3423346","LAUNCH_DATE":"2020-10-06","MEAN_MOTION_DDOT":"0.0000000000000","SITE":"AFETR","REF_FRAME":"TEME","OBJECT_NAME":"STARLINK-1749","ECCENTRICITY":"0.00013850","SEMIMAJOR_AXIS":"6925.399","MEAN_MOTION_DOT":"-0.00000992","PERIAPSIS":"546.305","MEAN_MOTION":"15.06383512","TIME_SYSTEM":"UTC","DECAY_DATE":null,"RCS_SIZE":"LARGE","TLE_LINE2":"2 46589  53.0560   1.1687 0001385  77.9947 282.1197 15.06383512 87432","BSTAR":"-0.00004774100000","PERIOD":"95.593","ELEMENT_SET_NO":"999","RA_OF_ASC_NODE":"1.1687","GP_ID":"202390874","TLE_LINE1":"1 46589U 20070BK  22120.84587789 -.00000992  00000-0 -47741-4 0  9993","OBJECT_ID":"2020-070BK","NORAD_CAT_ID":"46589","APOAPSIS":"548.223"}];
